[{"OBJECT_NAME":"STARLINK-32240","OBJECT_ID":"2024-144P","EPOCH":"2026-03-09T16:58:44.041152","MEAN_MOTION":15.3018597,"ECCENTRICITY":9.07e-5,"INCLINATION":53.1587,"RA_OF_ASC_NODE":216.924,"ARG_OF_PERICENTER":72.228,"MEAN_ANOMALY":287.882,"EPHEMERIS_TYPE":0,"CLASSIFICATION_TYPE":"U","NORAD_CAT_ID":60438,"ELEMENT_SET_NO":999,"REV_AT_EPOCH":8935,"BSTAR":2.6835217e-5,"MEAN_MOTION_DOT":4.36e-6,"MEAN_MOTION_DDOT":0},{"OBJECT_NAME":"FLOCK 4G-13","OBJECT_ID":"2025-009N","EPOCH":"2026-03-09T16:57:12.071808","MEAN_MOTION":15.32770015,"ECCENTRICITY":0.0003801,"INCLINATION":97.4019,"RA_OF_ASC_NODE":151.0918,"ARG_OF_PERICENTER":292.7207,"MEAN_ANOMALY":67.3633,"EPHEMERIS_TYPE":0,"CLASSIFICATION_TYPE":"U","NORAD_CAT_ID":62621,"ELEMENT_SET_NO":999,"REV_AT_EPOCH":6370,"BSTAR":0.0016695386,"MEAN_MOTION_DOT":0.00053076,"MEAN_MOTION_DDOT":0}]
