STARLINK-32240          
1 60438U 24144P   26068.70745417  .00000436  00000+0  26835-4 0  9993
2 60438  53.1587 216.9240 0000907  72.2280 287.8820 15.30185970 89352
FLOCK 4G-13             
1 62621U 25009N   26068.70638971  .00053076  00000+0  16695-2 0  9995
2 62621  97.4019 151.0918 0003801 292.7207  67.3633 15.32770015 63700
